OBJECT_NAME,OBJECT_ID,EPOCH,MEAN_MOTION,ECCENTRICITY,INCLINATION,RA_OF_ASC_NODE,ARG_OF_PERICENTER,MEAN_ANOMALY,EPHEMERIS_TYPE,CLASSIFICATION_TYPE,NORAD_CAT_ID,ELEMENT_SET_NO,REV_AT_EPOCH,BSTAR,MEAN_MOTION_DOT,MEAN_MOTION_DDOT
MIMIR 1,2026-067CC,2026-06-28T14:49:57.880992,14.90843393,.00027249,97.7616,137.6361,34.8534,325.2863,0,U,68490,999,1342,.19640826E-3,.1879E-4,0
LEMUR-2-DELOITTE-2,2026-067CD,2026-06-28T14:43:02.841312,14.91602210,.00038488,97.7558,137.5897,42.4165,317.7350,0,U,68491,999,1342,.57249279E-3,.5693E-4,0
LEMUR-2-EMARCHIA,2026-067CE,2026-06-28T11:23:52.978272,14.91802540,.00045114,97.7559,137.4658,40.9497,319.2060,0,U,68492,999,1340,.50197651E-3,.501E-4,0
LEMUR-2-POLO-11,2026-067CF,2026-06-28T09:45:54.457056,14.91805280,.00038734,97.7649,137.4943,17.1263,343.0086,0,U,68493,999,1339,.57188377E-3,.5716E-4,0
ICEYE-X71,2026-067CG,2026-06-28T14:22:59.570112,14.91719848,.00025526,97.7610,137.6590,29.9749,330.1616,0,U,68494,999,1342,.21167523E-3,.2075E-4,0
GRAVITAS,2026-067CH,2026-06-28T14:00:01.000224,14.79903890,.00041284,97.7621,135.2786,38.7865,80.2729,0,U,68495,999,537,-.90901293E-4,-.736E-5,0
ICEYE-X73,2026-067CJ,2026-06-28T10:22:06.263616,14.92275142,.00001217,97.7608,137.5665,44.0640,316.0589,0,U,68496,999,1340,.30190907E-3,.3026E-4,0
ICEYE-X75,2026-067CK,2026-06-28T10:26:00.909600,14.92142925,.00001417,97.7596,137.5439,54.8865,305.2367,0,U,68497,999,1340,.1275047E-3,.1241E-4,0
IO-1,2026-067CL,2026-06-28T08:09:28.821024,14.91586820,.0003601,97.7542,137.3149,50.4878,309.6659,0,U,68498,999,1338,.34508168E-3,.3407E-4,0
SERT3,2026-067CM,2026-06-28T14:26:14.225856,14.91608699,.00024003,97.7585,137.6232,48.6884,311.4541,0,U,68499,999,1342,.14347094E-3,.1384E-4,0
ICEYE-X74,2026-067CN,2026-06-28T14:21:45.082080,14.91720548,.00024012,97.7617,137.6672,27.1357,332.9987,0,U,68500,999,1342,.20732967E-3,.2031E-4,0
TRANSPORTER-16 OBJECT CP,2026-067CP,2026-06-28T11:24:42.291072,14.91512798,.00035695,97.7638,137.5334,19.5487,340.5868,0,U,68501,999,1340,.15647057E-3,.1511E-4,0
ICEYE-X76,2026-067CQ,2026-06-28T14:15:26.349408,14.91720842,.00020599,97.7629,137.6797,21.1486,338.9818,0,U,68502,999,1342,.92142572E-4,.872E-5,0
FLYLAB2,2026-067CR,2026-06-28T10:44:59.563968,14.90890402,.00066197,97.7571,137.3517,36.3645,323.8022,0,U,68503,999,1339,.43947901E-3,.428E-4,0
ICEYE-X72,2026-067CS,2026-06-28T10:24:38.836512,14.93870377,.00012258,97.7620,137.5805,3.9511,356.1718,0,U,68504,999,1340,.66988456E-2,.71822E-3,0
GEMS2-AMETHYST,2026-067CT,2026-06-28T10:28:48.745056,14.91226865,.00060876,97.7607,137.4055,25.6404,334.5115,0,U,68505,999,1339,.45663039E-3,.4487E-4,0
AEPEX,2026-067CU,2026-06-28T11:01:13.632384,15.19213220,.00049514,97.4515,137.7745,63.8581,296.3163,0,U,68506,999,1353,.3431552E-3,.7161E-4,0
CAMOES,2026-067CV,2026-06-28T14:53:45.805056,15.18424557,.00045463,97.4645,137.9474,59.7623,300.4061,0,U,68507,999,1365,.40919392E-3,.8359E-4,0
STARLINK-37262,2026-068A,2026-06-28T14:17:12.833952,15.34408264,.00009542,53.1605,326.2906,91.0260,269.0852,0,U,68508,999,1403,.7091556E-3,.23666E-3,0
STARLINK-36292,2026-068B,2026-06-28T14:48:55.387872,15.34407401,.00016465,53.1593,331.5200,64.6872,295.4301,0,U,68509,999,1396,.72724771E-3,.2428E-3,0
STARLINK-37260,2026-068C,2026-06-28T14:30:02.071296,15.34412617,.00014296,53.1609,329.9732,60.7973,299.3173,0,U,68510,999,1398,.6365263E-3,.21199E-3,0
STARLINK-37280,2026-068D,2026-06-28T15:05:33.895392,15.34403680,.00010226,53.1591,325.7942,67.0206,293.0905,0,U,68511,999,1404,.62555003E-3,.2082E-3,0
STARLINK-37286,2026-068E,2026-06-28T14:41:19.772160,15.34391145,.00012546,53.1604,325.6934,78.1309,281.9834,0,U,68512,999,1404,.68158598E-3,.22716E-3,0
STARLINK-36250,2026-068F,2026-06-28T14:54:58.942656,15.34403842,.00012571,53.1608,331.5505,117.3491,242.7640,0,U,68513,999,1396,.56810897E-3,.18869E-3,0
STARLINK-37251,2026-068G,2026-06-28T14:27:50.902272,15.34406973,.00011121,53.1595,332.1606,52.1356,307.9747,0,U,68514,999,1395,.63305365E-3,.21077E-3,0
STARLINK-36293,2026-068H,2026-06-28T14:18:45.427968,15.34403385,.00016232,53.1582,332.1086,78.6869,281.4316,0,U,68515,999,1395,.66531947E-3,.22172E-3,0
STARLINK-36290,2026-068J,2026-06-28T15:04:04.282176,15.34409431,.00011978,53.1588,331.5799,118.6299,241.4824,0,U,68516,999,1396,.68190644E-3,.2274E-3,0
STARLINK-36298,2026-068K,2026-06-28T14:09:40.909248,15.34369291,.00006722,53.1585,332.0841,66.9679,293.1394,0,U,68517,999,1395,.12666035E-3,.3902E-4,0
STARLINK-36857,2026-068L,2026-06-28T13:39:22.048416,15.34405351,.00012828,53.1590,331.9341,33.9262,326.1823,0,U,68518,999,1395,.61146387E-3,.20343E-3,0
STARLINK-36326,2026-068M,2026-06-28T15:22:14.988864,15.34408996,.00008153,53.1592,331.6697,79.8537,280.2557,0,U,68519,999,1396,.48848088E-3,.16168E-3,0
