MIMIR 1                 
1 68490U 26067CC  26179.61803103  .00001879  00000+0  19641-3 0  9993
2 68490  97.7616 137.6361 0002724  34.8534 325.2863 14.90843393 13427
LEMUR-2-DELOITTE-2      
1 68491U 26067CD  26179.61322733  .00005693  00000+0  57249-3 0  9993
2 68491  97.7558 137.5897 0003848  42.4165 317.7350 14.91602210 13428
LEMUR-2-EMARCHIA        
1 68492U 26067CE  26179.47491873  .00005010  00000+0  50198-3 0  9999
2 68492  97.7559 137.4658 0004511  40.9497 319.2060 14.91802540 13404
LEMUR-2-POLO-11         
1 68493U 26067CF  26179.40688029  .00005716  00000+0  57188-3 0  9993
2 68493  97.7649 137.4943 0003873  17.1263 343.0086 14.91805280 13394
ICEYE-X71               
1 68494U 26067CG  26179.59930058  .00002075  00000+0  21168-3 0  9990
2 68494  97.7610 137.6590 0002552  29.9749 330.1616 14.91719848 13420
GRAVITAS                
1 68495U 26067CH  26179.58334491 -.00000736  00000+0 -90901-4 0  9995
2 68495  97.7621 135.2786 0004128  38.7865  80.2729 14.79903890  5373
ICEYE-X73               
1 68496U 26067CJ  26179.43201694  .00003026  00000+0  30191-3 0  9995
2 68496  97.7608 137.5665 0000121  44.0640 316.0589 14.92275142 13404
ICEYE-X75               
1 68497U 26067CK  26179.43473275  .00001241  00000+0  12750-3 0  9990
2 68497  97.7596 137.5439 0000141  54.8865 305.2367 14.92142925 13406
IO-1                    
1 68498U 26067CL  26179.33991691  .00003407  00000+0  34508-3 0  9998
2 68498  97.7542 137.3149 0003601  50.4878 309.6659 14.91586820 13388
SERT3                   
1 68499U 26067CM  26179.60155354  .00001384  00000+0  14347-3 0  9998
2 68499  97.7585 137.6232 0002400  48.6884 311.4541 14.91608699 13429
ICEYE-X74               
1 68500U 26067CN  26179.59843845  .00002031  00000+0  20733-3 0  9994
2 68500  97.7617 137.6672 0002401  27.1357 332.9987 14.91720548 13424
TRANSPORTER-16 OBJECT CP
1 68501U 26067CP  26179.47548948  .00001511  00000+0  15647-3 0  9998
2 68501  97.7638 137.5334 0003569  19.5487 340.5868 14.91512798 13404
ICEYE-X76               
1 68502U 26067CQ  26179.59405497  .00000872  00000+0  92143-4 0  9999
2 68502  97.7629 137.6797 0002059  21.1486 338.9818 14.91720842 13429
FLYLAB2                 
1 68503U 26067CR  26179.44791162  .00004280  00000+0  43948-3 0  9996
2 68503  97.7571 137.3517 0006619  36.3645 323.8022 14.90890402 13399
ICEYE-X72               
1 68504U 26067CS  26179.43378283  .00071822  00000+0  66988-2 0  9995
2 68504  97.7620 137.5805 0001225   3.9511 356.1718 14.93870377 13402
GEMS2-AMETHYST          
1 68505U 26067CT  26179.43667529  .00004487  00000+0  45663-3 0  9991
2 68505  97.7607 137.4055 0006087  25.6404 334.5115 14.91226865 13391
AEPEX                   
1 68506U 26067CU  26179.45918556  .00007161  00000+0  34316-3 0  9998
2 68506  97.4515 137.7745 0004951  63.8581 296.3163 15.19213220 13530
CAMOES                  
1 68507U 26067CV  26179.62066904  .00008359  00000+0  40919-3 0  9995
2 68507  97.4645 137.9474 0004546  59.7623 300.4061 15.18424557 13650
STARLINK-37262          
1 68508U 26068A   26179.59528743  .00023666  00000+0  70916-3 0  9995
2 68508  53.1605 326.2906 0000954  91.0260 269.0852 15.34408264 14030
STARLINK-36292          
1 68509U 26068B   26179.61730773  .00024280  00000+0  72725-3 0  9990
2 68509  53.1593 331.5200 0001646  64.6872 295.4301 15.34407401 13962
STARLINK-37260          
1 68510U 26068C   26179.60419064  .00021199  00000+0  63653-3 0  9994
2 68510  53.1609 329.9732 0001429  60.7973 299.3173 15.34412617 13988
STARLINK-37280          
1 68511U 26068D   26179.62886453  .00020820  00000+0  62555-3 0  9997
2 68511  53.1591 325.7942 0001022  67.0206 293.0905 15.34403680 14046
STARLINK-37286          
1 68512U 26068E   26179.61203440  .00022716  00000+0  68159-3 0  9998
2 68512  53.1604 325.6934 0001254  78.1309 281.9834 15.34391145 14045
STARLINK-36250          
1 68513U 26068F   26179.62151554  .00018869  00000+0  56811-3 0  9994
2 68513  53.1608 331.5505 0001257 117.3491 242.7640 15.34403842 13969
STARLINK-37251          
1 68514U 26068G   26179.60267248  .00021077  00000+0  63305-3 0  9992
2 68514  53.1595 332.1606 0001112  52.1356 307.9747 15.34406973 13959
STARLINK-36293          
1 68515U 26068H   26179.59635912  .00022172  00000+0  66532-3 0  9990
2 68515  53.1582 332.1086 0001623  78.6869 281.4316 15.34403385 13959
STARLINK-36290          
1 68516U 26068J   26179.62782734  .00022740  00000+0  68191-3 0  9994
2 68516  53.1588 331.5799 0001197 118.6299 241.4824 15.34409431 13967
STARLINK-36298          
1 68517U 26068K   26179.59005682  .00003902  00000+0  12666-3 0  9996
2 68517  53.1585 332.0841 0000672  66.9679 293.1394 15.34369291 13957
STARLINK-36857          
1 68518U 26068L   26179.56900519  .00020343  00000+0  61146-3 0  9992
2 68518  53.1590 331.9341 0001282  33.9262 326.1823 15.34405351 13959
STARLINK-36326          
1 68519U 26068M   26179.64045126  .00016168  00000+0  48848-3 0  9990
2 68519  53.1592 331.6697 0000815  79.8537 280.2557 15.34408996 13961
